CCSDS_OMM_VERS = 2.0
CREATION_DATE  = 
ORIGINATOR     = 

OBJECT_NAME    = SL-14 R/B
OBJECT_ID      = 1986-046B
CENTER_NAME    = EARTH
REF_FRAME      = TEME
TIME_SYSTEM    = UTC
MEAN_ELEMENT_THEORY = SGP/SGP4

EPOCH          = 2026-01-10T17:54:35.583552
MEAN_MOTION    = 14.85524310
ECCENTRICITY   = .00243935
INCLINATION    = 82.4833
RA_OF_ASC_NODE = 134.9217
ARG_OF_PERICENTER = 61.4239
MEAN_ANOMALY   = 298.9428

EPHEMERIS_TYPE = 0
CLASSIFICATION_TYPE = U
NORAD_CAT_ID   = 16792
ELEMENT_SET_NO = 999
REV_AT_EPOCH   = 11780
BSTAR          = .62732156E-4
MEAN_MOTION_DOT = .569E-5
MEAN_MOTION_DDOT = 0

CCSDS_OMM_VERS = 2.0
CREATION_DATE  = 
ORIGINATOR     = 

OBJECT_NAME    = SL-14 R/B
OBJECT_ID      = 1986-055B
CENTER_NAME    = EARTH
REF_FRAME      = TEME
TIME_SYSTEM    = UTC
MEAN_ELEMENT_THEORY = SGP/SGP4

EPOCH          = 2026-01-10T21:19:13.060704
MEAN_MOTION    = 14.85567844
ECCENTRICITY   = .00193999
INCLINATION    = 82.5202
RA_OF_ASC_NODE = 180.9820
ARG_OF_PERICENTER = 159.3738
MEAN_ANOMALY   = 315.4811

EPHEMERIS_TYPE = 0
CLASSIFICATION_TYPE = U
NORAD_CAT_ID   = 16882
ELEMENT_SET_NO = 999
REV_AT_EPOCH   = 11078
BSTAR          = .68626471E-4
MEAN_MOTION_DOT = .619E-5
MEAN_MOTION_DDOT = 0

CCSDS_OMM_VERS = 2.0
CREATION_DATE  = 
ORIGINATOR     = 

OBJECT_NAME    = AJISAI (EGS)
OBJECT_ID      = 1986-061A
CENTER_NAME    = EARTH
REF_FRAME      = TEME
TIME_SYSTEM    = UTC
MEAN_ELEMENT_THEORY = SGP/SGP4

EPOCH          = 2026-01-10T23:39:35.591040
MEAN_MOTION    = 12.44514797
ECCENTRICITY   = .00113093
INCLINATION    = 50.0090
RA_OF_ASC_NODE = 270.7891
ARG_OF_PERICENTER = 139.3432
MEAN_ANOMALY   = 339.4522

EPHEMERIS_TYPE = 0
CLASSIFICATION_TYPE = U
NORAD_CAT_ID   = 16908
ELEMENT_SET_NO = 999
REV_AT_EPOCH   = 46081
BSTAR          = .35240278E-4
MEAN_MOTION_DOT = -.92E-6
MEAN_MOTION_DDOT = 0

CCSDS_OMM_VERS = 2.0
CREATION_DATE  = 
ORIGINATOR     = 

OBJECT_NAME    = COSMOS 1812
OBJECT_ID      = 1987-003A
CENTER_NAME    = EARTH
REF_FRAME      = TEME
TIME_SYSTEM    = UTC
MEAN_ELEMENT_THEORY = SGP/SGP4

EPOCH          = 2026-01-10T18:10:19.461216
MEAN_MOTION    = 15.82981038
ECCENTRICITY   = .00036015
INCLINATION    = 82.4838
RA_OF_ASC_NODE = 260.4445
ARG_OF_PERICENTER = 56.0795
MEAN_ANOMALY   = 304.0815

EPHEMERIS_TYPE = 0
CLASSIFICATION_TYPE = U
NORAD_CAT_ID   = 17295
ELEMENT_SET_NO = 999
REV_AT_EPOCH   = 13523
BSTAR          = .6424965E-3
MEAN_MOTION_DOT = .138178E-2
MEAN_MOTION_DDOT = 0

CCSDS_OMM_VERS = 2.0
CREATION_DATE  = 
ORIGINATOR     = 

OBJECT_NAME    = SL-14 R/B
OBJECT_ID      = 1987-024B
CENTER_NAME    = EARTH
REF_FRAME      = TEME
TIME_SYSTEM    = UTC
MEAN_ELEMENT_THEORY = SGP/SGP4

EPOCH          = 2026-01-10T20:49:58.255104
MEAN_MOTION    = 14.86064299
ECCENTRICITY   = .00197273
INCLINATION    = 82.5294
RA_OF_ASC_NODE = 147.0922
ARG_OF_PERICENTER = 92.2713
MEAN_ANOMALY   = 268.0762

EPHEMERIS_TYPE = 0
CLASSIFICATION_TYPE = U
NORAD_CAT_ID   = 17567
ELEMENT_SET_NO = 999
REV_AT_EPOCH   = 7954
BSTAR          = .65890855E-4
MEAN_MOTION_DOT = .603E-5
MEAN_MOTION_DDOT = 0

CCSDS_OMM_VERS = 2.0
CREATION_DATE  = 
ORIGINATOR     = 

OBJECT_NAME    = COSMOS 1833
OBJECT_ID      = 1987-027A
CENTER_NAME    = EARTH
REF_FRAME      = TEME
TIME_SYSTEM    = UTC
MEAN_ELEMENT_THEORY = SGP/SGP4

EPOCH          = 2026-01-10T22:54:15.692256
MEAN_MOTION    = 14.13041034
ECCENTRICITY   = .00239443
INCLINATION    = 70.9189
RA_OF_ASC_NODE = 87.3675
ARG_OF_PERICENTER = 291.3671
MEAN_ANOMALY   = 68.4895

EPHEMERIS_TYPE = 0
CLASSIFICATION_TYPE = U
NORAD_CAT_ID   = 17589
ELEMENT_SET_NO = 999
REV_AT_EPOCH   = 216
BSTAR          = .19987508E-3
MEAN_MOTION_DOT = .326E-5
MEAN_MOTION_DDOT = 0

CCSDS_OMM_VERS = 2.0
CREATION_DATE  = 
ORIGINATOR     = 

OBJECT_NAME    = SL-16 R/B
OBJECT_ID      = 1987-027B
CENTER_NAME    = EARTH
REF_FRAME      = TEME
TIME_SYSTEM    = UTC
MEAN_ELEMENT_THEORY = SGP/SGP4

EPOCH          = 2026-01-10T19:30:33.577632
MEAN_MOTION    = 14.17159434
ECCENTRICITY   = .00066282
INCLINATION    = 71.0031
RA_OF_ASC_NODE = 38.4547
ARG_OF_PERICENTER = 228.5046
MEAN_ANOMALY   = 131.5509

EPHEMERIS_TYPE = 0
CLASSIFICATION_TYPE = U
NORAD_CAT_ID   = 17590
ELEMENT_SET_NO = 999
REV_AT_EPOCH   = 714
BSTAR          = .11754505E-3
MEAN_MOTION_DOT = .189E-5
MEAN_MOTION_DDOT = 0

CCSDS_OMM_VERS = 2.0
CREATION_DATE  = 
ORIGINATOR     = 

OBJECT_NAME    = SL-14 R/B
OBJECT_ID      = 1987-038B
CENTER_NAME    = EARTH
REF_FRAME      = TEME
TIME_SYSTEM    = UTC
MEAN_ELEMENT_THEORY = SGP/SGP4

EPOCH          = 2026-01-10T23:13:50.911968
MEAN_MOTION    = 14.85297362
ECCENTRICITY   = .00192876
INCLINATION    = 82.5020
RA_OF_ASC_NODE = 351.1680
ARG_OF_PERICENTER = 0.4205
MEAN_ANOMALY   = 359.7024

EPHEMERIS_TYPE = 0
CLASSIFICATION_TYPE = U
NORAD_CAT_ID   = 17912
ELEMENT_SET_NO = 999
REV_AT_EPOCH   = 7066
BSTAR          = .63767831E-4
MEAN_MOTION_DOT = .573E-5
MEAN_MOTION_DDOT = 0

CCSDS_OMM_VERS = 2.0
CREATION_DATE  = 
ORIGINATOR     = 

OBJECT_NAME    = COSMOS 1844
OBJECT_ID      = 1987-041A
CENTER_NAME    = EARTH
REF_FRAME      = TEME
TIME_SYSTEM    = UTC
MEAN_ELEMENT_THEORY = SGP/SGP4

EPOCH          = 2026-01-10T20:07:05.968992
MEAN_MOTION    = 14.14539084
ECCENTRICITY   = .00283867
INCLINATION    = 70.8993
RA_OF_ASC_NODE = 156.1981
ARG_OF_PERICENTER = 110.8698
MEAN_ANOMALY   = 249.5467

EPHEMERIS_TYPE = 0
CLASSIFICATION_TYPE = U
NORAD_CAT_ID   = 17973
ELEMENT_SET_NO = 999
REV_AT_EPOCH   = 99540
BSTAR          = -.32690797E-4
MEAN_MOTION_DOT = -.111E-5
MEAN_MOTION_DDOT = 0

CCSDS_OMM_VERS = 2.0
CREATION_DATE  = 
ORIGINATOR     = 

OBJECT_NAME    = SL-14 R/B
OBJECT_ID      = 1987-055B
CENTER_NAME    = EARTH
REF_FRAME      = TEME
TIME_SYSTEM    = UTC
MEAN_ELEMENT_THEORY = SGP/SGP4

EPOCH          = 2026-01-10T22:54:51.861888
MEAN_MOTION    = 14.85555792
ECCENTRICITY   = .00200954
INCLINATION    = 82.4979
RA_OF_ASC_NODE = 43.4504
ARG_OF_PERICENTER = 200.4489
MEAN_ANOMALY   = 159.5925

EPHEMERIS_TYPE = 0
CLASSIFICATION_TYPE = U
NORAD_CAT_ID   = 18153
ELEMENT_SET_NO = 999
REV_AT_EPOCH   = 6136
BSTAR          = .5058288E-4
MEAN_MOTION_DOT = .463E-5
MEAN_MOTION_DDOT = 0

CCSDS_OMM_VERS = 2.0
CREATION_DATE  = 
ORIGINATOR     = 

OBJECT_NAME    = COSMOS 1867
OBJECT_ID      = 1987-060A
CENTER_NAME    = EARTH
REF_FRAME      = TEME
TIME_SYSTEM    = UTC
MEAN_ELEMENT_THEORY = SGP/SGP4

EPOCH          = 2026-01-10T15:58:24.122208
MEAN_MOTION    = 14.31492263
ECCENTRICITY   = .00137999
INCLINATION    = 65.0111
RA_OF_ASC_NODE = 109.1996
ARG_OF_PERICENTER = 273.9429
MEAN_ANOMALY   = 86.0078

EPHEMERIS_TYPE = 0
CLASSIFICATION_TYPE = U
NORAD_CAT_ID   = 18187
ELEMENT_SET_NO = 999
REV_AT_EPOCH   = 1163
BSTAR          = .31813779E-4
MEAN_MOTION_DOT = -.16E-6
MEAN_MOTION_DDOT = 0

CCSDS_OMM_VERS = 2.0
CREATION_DATE  = 
ORIGINATOR     = 

OBJECT_NAME    = SL-14 R/B
OBJECT_ID      = 1988-001B
CENTER_NAME    = EARTH
REF_FRAME      = TEME
TIME_SYSTEM    = UTC
MEAN_ELEMENT_THEORY = SGP/SGP4

EPOCH          = 2026-01-10T17:51:38.751264
MEAN_MOTION    = 14.85458534
ECCENTRICITY   = .00195543
INCLINATION    = 82.5119
RA_OF_ASC_NODE = 249.8682
ARG_OF_PERICENTER = 71.4232
MEAN_ANOMALY   = 288.9106

EPHEMERIS_TYPE = 0
CLASSIFICATION_TYPE = U
NORAD_CAT_ID   = 18749
ELEMENT_SET_NO = 999
REV_AT_EPOCH   = 3342
BSTAR          = .47371391E-4
MEAN_MOTION_DOT = .434E-5
MEAN_MOTION_DDOT = 0

