SL-14 R/B               
1 16792U 86046B   26010.74624518  .00000569  00000+0  62732-4 0  9998
2 16792  82.4833 134.9217 0024393  61.4239 298.9428 14.85524310117800
SL-14 R/B               
1 16882U 86055B   26010.88834561  .00000619  00000+0  68626-4 0  9998
2 16882  82.5202 180.9820 0019399 159.3738 315.4811 14.85567844110783
AJISAI (EGS)            
1 16908U 86061A   26010.98582860 -.00000092  00000+0  35240-4 0  9999
2 16908  50.0090 270.7891 0011309 139.3432 339.4522 12.44514797460814
COSMOS 1812             
1 17295U 87003A   26010.75716969  .00138178  00000+0  64250-3 0  9998
2 17295  82.4838 260.4445 0003601  56.0795 304.0815 15.82981038135236
SL-14 R/B               
1 17567U 87024B   26010.86803536  .00000603  00000+0  65891-4 0  9996
2 17567  82.5294 147.0922 0019727  92.2713 268.0762 14.86064299 79548
COSMOS 1833             
1 17589U 87027A   26010.95434829  .00000326  00000+0  19988-3 0  9995
2 17589  70.9189  87.3675 0023944 291.3671  68.4895 14.13041034  2163
SL-16 R/B               
1 17590U 87027B   26010.81288863  .00000189  00000+0  11755-3 0  9998
2 17590  71.0031  38.4547 0006628 228.5046 131.5509 14.17159434  7141
SL-14 R/B               
1 17912U 87038B   26010.96795037  .00000573  00000+0  63768-4 0  9999
2 17912  82.5020 351.1680 0019287   0.4205 359.7024 14.85297362 70667
COSMOS 1844             
1 17973U 87041A   26010.83826353 -.00000111  00000+0 -32691-4 0  9993
2 17973  70.8993 156.1981 0028386 110.8698 249.5467 14.14539084995409
SL-14 R/B               
1 18153U 87055B   26010.95476692  .00000463  00000+0  50583-4 0  9997
2 18153  82.4979  43.4504 0020095 200.4489 159.5925 14.85555792 61365
COSMOS 1867             
1 18187U 87060A   26010.66555697 -.00000016  00000+0  31814-4 0  9992
2 18187  65.0111 109.1996 0013799 273.9429  86.0078 14.31492263 11636
SL-14 R/B               
1 18749U 88001B   26010.74419851  .00000434  00000+0  47371-4 0  9990
2 18749  82.5119 249.8682 0019554  71.4232 288.9106 14.85458534 33422
